IRIDIUM 119             
1 42959U 17061E   26001.72878118  .00000013  00000+0 -24451-5 0  9990
2 42959  86.3966  94.8615 0001890 103.9793 256.1613 14.34217294430954
IRIDIUM 107             
1 42960U 17061F   26001.74780976  .00000051  00000+0  11177-4 0  9999
2 42960  86.3965  94.8741 0002491 103.7402 256.4071 14.34217835430961
IRIDIUM 132             
1 42961U 17061G   26001.75414925  .00000099  00000+0  28347-4 0  9998
2 42961  86.3970  94.8523 0002155 101.2717 258.8721 14.34220179430968
IRIDIUM 136             
1 42962U 17061H   26001.71609630  .00000002  00000+0 -63462-5 0  9997
2 42962  86.3970  94.8740 0002127 100.9437 259.1998 14.34217495430972
IRIDIUM 139             
1 42963U 17061J   26001.72243394  .00000558  00000+0  19211-3 0  9996
2 42963  86.3968  94.9306 0002279 100.3724 259.7728 14.34215189430986
IRIDIUM 125             
1 42964U 17061K   26001.77952088  .00000244  00000+0  80185-4 0  9990
2 42964  86.3977  94.9656 0002324 110.9390 249.2054 14.34218823431000
IRIDIUM 135             
1 43070U 17083A   26001.61411044  .00000090  00000+0  25174-4 0  9994
2 43070  86.3953  31.6324 0002172  91.4529 268.6916 14.34218168420272
IRIDIUM 138             
1 43071U 17083B   26001.77901751  .00000021  00000+0  55383-6 0  9992
2 43071  86.3962  31.2331 0001838 101.9844 258.1558 14.34217570420285
